[{"OBJECT_NAME":"STARLINK-4440","OBJECT_ID":"2022-105Z","EPOCH":"2026-03-09T16:14:24.571392","MEAN_MOTION":15.01291028,"ECCENTRICITY":0.00030651,"INCLINATION":97.6027,"RA_OF_ASC_NODE":310.2063,"ARG_OF_PERICENTER":62.8472,"MEAN_ANOMALY":297.3064,"EPHEMERIS_TYPE":0,"CLASSIFICATION_TYPE":"U","NORAD_CAT_ID":53671,"ELEMENT_SET_NO":999,"REV_AT_EPOCH":19323,"BSTAR":0.00029745866,"MEAN_MOTION_DOT":3.768e-5,"MEAN_MOTION_DDOT":0},{"OBJECT_NAME":"CZ-6A DEB","OBJECT_ID":"2022-151ADY","EPOCH":"2026-03-09T03:31:51.275136","MEAN_MOTION":14.90358805,"ECCENTRICITY":0.00492463,"INCLINATION":98.6182,"RA_OF_ASC_NODE":136.027,"ARG_OF_PERICENTER":205.5066,"MEAN_ANOMALY":154.3719,"EPHEMERIS_TYPE":0,"CLASSIFICATION_TYPE":"U","NORAD_CAT_ID":56600,"ELEMENT_SET_NO":999,"REV_AT_EPOCH":16160,"BSTAR":0.0054644315,"MEAN_MOTION_DOT":0.00054726,"MEAN_MOTION_DDOT":0}]
